<?xml version="1.0" encoding="UTF-8"?>
<ndm xmlns:xsi="http://www.w3.org/2001/XMLSchema-instance" xsi:noNamespaceSchemaLocation="https://sanaregistry.org/r/ndmxml_unqualified/ndmxml-2.0.0-master-2.0.xsd">
<omm id="CCSDS_OMM_VERS" version="2.0">
<header><CREATION_DATE/><ORIGINATOR/></header><body><segment><metadata><OBJECT_NAME>ORBCOMM FM33</OBJECT_NAME><OBJECT_ID>1999-065D</OBJECT_ID><CENTER_NAME>EARTH</CENTER_NAME><REF_FRAME>TEME</REF_FRAME><TIME_SYSTEM>UTC</TIME_SYSTEM><MEAN_ELEMENT_THEORY>SGP4</MEAN_ELEMENT_THEORY></metadata><data><meanElements><EPOCH>2025-01-17T07:20:55.075200</EPOCH><MEAN_MOTION>14.39268710</MEAN_MOTION><ECCENTRICITY>.000925</ECCENTRICITY><INCLINATION>45.0297</INCLINATION><RA_OF_ASC_NODE>355.9640</RA_OF_ASC_NODE><ARG_OF_PERICENTER>9.9657</ARG_OF_PERICENTER><MEAN_ANOMALY>350.1374</MEAN_ANOMALY></meanElements><tleParameters><EPHEMERIS_TYPE>0</EPHEMERIS_TYPE><CLASSIFICATION_TYPE>U</CLASSIFICATION_TYPE><NORAD_CAT_ID>25983</NORAD_CAT_ID><ELEMENT_SET_NO>999</ELEMENT_SET_NO><REV_AT_EPOCH>31432</REV_AT_EPOCH><BSTAR>.88378E-3</BSTAR><MEAN_MOTION_DOT>.2627E-4</MEAN_MOTION_DOT><MEAN_MOTION_DDOT>0</MEAN_MOTION_DDOT></tleParameters></data></segment></body></omm>
<omm id="CCSDS_OMM_VERS" version="2.0">
<header><CREATION_DATE/><ORIGINATOR/></header><body><segment><metadata><OBJECT_NAME>ORBCOMM FM36</OBJECT_NAME><OBJECT_ID>1999-065E</OBJECT_ID><CENTER_NAME>EARTH</CENTER_NAME><REF_FRAME>TEME</REF_FRAME><TIME_SYSTEM>UTC</TIME_SYSTEM><MEAN_ELEMENT_THEORY>SGP4</MEAN_ELEMENT_THEORY></metadata><data><meanElements><EPOCH>2025-01-17T13:24:11.170368</EPOCH><MEAN_MOTION>14.37387571</MEAN_MOTION><ECCENTRICITY>.0005574</ECCENTRICITY><INCLINATION>45.0391</INCLINATION><RA_OF_ASC_NODE>84.3730</RA_OF_ASC_NODE><ARG_OF_PERICENTER>260.5272</ARG_OF_PERICENTER><MEAN_ANOMALY>99.4946</MEAN_ANOMALY></meanElements><tleParameters><EPHEMERIS_TYPE>0</EPHEMERIS_TYPE><CLASSIFICATION_TYPE>U</CLASSIFICATION_TYPE><NORAD_CAT_ID>25984</NORAD_CAT_ID><ELEMENT_SET_NO>999</ELEMENT_SET_NO><REV_AT_EPOCH>31274</REV_AT_EPOCH><BSTAR>.87755E-3</BSTAR><MEAN_MOTION_DOT>.2505E-4</MEAN_MOTION_DOT><MEAN_MOTION_DDOT>0</MEAN_MOTION_DDOT></tleParameters></data></segment></body></omm>
<omm id="CCSDS_OMM_VERS" version="2.0">
<header><CREATION_DATE/><ORIGINATOR/></header><body><segment><metadata><OBJECT_NAME>ORBCOMM FM35</OBJECT_NAME><OBJECT_ID>1999-065F</OBJECT_ID><CENTER_NAME>EARTH</CENTER_NAME><REF_FRAME>TEME</REF_FRAME><TIME_SYSTEM>UTC</TIME_SYSTEM><MEAN_ELEMENT_THEORY>SGP4</MEAN_ELEMENT_THEORY></metadata><data><meanElements><EPOCH>2025-01-17T10:26:16.852128</EPOCH><MEAN_MOTION>14.36483171</MEAN_MOTION><ECCENTRICITY>.0003395</ECCENTRICITY><INCLINATION>45.0400</INCLINATION><RA_OF_ASC_NODE>88.8491</RA_OF_ASC_NODE><ARG_OF_PERICENTER>324.3345</ARG_OF_PERICENTER><MEAN_ANOMALY>35.7276</MEAN_ANOMALY></meanElements><tleParameters><EPHEMERIS_TYPE>0</EPHEMERIS_TYPE><CLASSIFICATION_TYPE>U</CLASSIFICATION_TYPE><NORAD_CAT_ID>25985</NORAD_CAT_ID><ELEMENT_SET_NO>999</ELEMENT_SET_NO><REV_AT_EPOCH>31310</REV_AT_EPOCH><BSTAR>.59164E-3</BSTAR><MEAN_MOTION_DOT>.161E-4</MEAN_MOTION_DOT><MEAN_MOTION_DDOT>0</MEAN_MOTION_DDOT></tleParameters></data></segment></body></omm>
<omm id="CCSDS_OMM_VERS" version="2.0">
<header><CREATION_DATE/><ORIGINATOR/></header><body><segment><metadata><OBJECT_NAME>ORBCOMM FM34</OBJECT_NAME><OBJECT_ID>1999-065G</OBJECT_ID><CENTER_NAME>EARTH</CENTER_NAME><REF_FRAME>TEME</REF_FRAME><TIME_SYSTEM>UTC</TIME_SYSTEM><MEAN_ELEMENT_THEORY>SGP4</MEAN_ELEMENT_THEORY></metadata><data><meanElements><EPOCH>2025-01-17T14:43:36.091488</EPOCH><MEAN_MOTION>14.36530657</MEAN_MOTION><ECCENTRICITY>.0005235</ECCENTRICITY><INCLINATION>45.0396</INCLINATION><RA_OF_ASC_NODE>88.5246</RA_OF_ASC_NODE><ARG_OF_PERICENTER>287.6829</ARG_OF_PERICENTER><MEAN_ANOMALY>72.3448</MEAN_ANOMALY></meanElements><tleParameters><EPHEMERIS_TYPE>0</EPHEMERIS_TYPE><CLASSIFICATION_TYPE>U</CLASSIFICATION_TYPE><NORAD_CAT_ID>25986</NORAD_CAT_ID><ELEMENT_SET_NO>999</ELEMENT_SET_NO><REV_AT_EPOCH>31324</REV_AT_EPOCH><BSTAR>.64045E-3</BSTAR><MEAN_MOTION_DOT>.1757E-4</MEAN_MOTION_DOT><MEAN_MOTION_DDOT>0</MEAN_MOTION_DDOT></tleParameters></data></segment></body></omm>
<omm id="CCSDS_OMM_VERS" version="2.0">
<header><CREATION_DATE/><ORIGINATOR/></header><body><segment><metadata><OBJECT_NAME>ORBCOMM FM38</OBJECT_NAME><OBJECT_ID>2008-031A</OBJECT_ID><CENTER_NAME>EARTH</CENTER_NAME><REF_FRAME>TEME</REF_FRAME><TIME_SYSTEM>UTC</TIME_SYSTEM><MEAN_ELEMENT_THEORY>SGP4</MEAN_ELEMENT_THEORY></metadata><data><meanElements><EPOCH>2025-01-17T04:51:10.553472</EPOCH><MEAN_MOTION>14.80139462</MEAN_MOTION><ECCENTRICITY>.0005381</ECCENTRICITY><INCLINATION>48.4410</INCLINATION><RA_OF_ASC_NODE>314.2233</RA_OF_ASC_NODE><ARG_OF_PERICENTER>107.1004</ARG_OF_PERICENTER><MEAN_ANOMALY>253.0501</MEAN_ANOMALY></meanElements><tleParameters><EPHEMERIS_TYPE>0</EPHEMERIS_TYPE><CLASSIFICATION_TYPE>U</CLASSIFICATION_TYPE><NORAD_CAT_ID>33060</NORAD_CAT_ID><ELEMENT_SET_NO>999</ELEMENT_SET_NO><REV_AT_EPOCH>89237</REV_AT_EPOCH><BSTAR>.51644E-3</BSTAR><MEAN_MOTION_DOT>.3752E-4</MEAN_MOTION_DOT><MEAN_MOTION_DDOT>0</MEAN_MOTION_DDOT></tleParameters></data></segment></body></omm>
<omm id="CCSDS_OMM_VERS" version="2.0">
<header><CREATION_DATE/><ORIGINATOR/></header><body><segment><metadata><OBJECT_NAME>ORBCOMM FM41</OBJECT_NAME><OBJECT_ID>2008-031B</OBJECT_ID><CENTER_NAME>EARTH</CENTER_NAME><REF_FRAME>TEME</REF_FRAME><TIME_SYSTEM>UTC</TIME_SYSTEM><MEAN_ELEMENT_THEORY>SGP4</MEAN_ELEMENT_THEORY></metadata><data><meanElements><EPOCH>2025-01-17T04:34:47.274816</EPOCH><MEAN_MOTION>14.79769401</MEAN_MOTION><ECCENTRICITY>.0004577</ECCENTRICITY><INCLINATION>48.4446</INCLINATION><RA_OF_ASC_NODE>321.5602</RA_OF_ASC_NODE><ARG_OF_PERICENTER>91.1068</ARG_OF_PERICENTER><MEAN_ANOMALY>45.3868</MEAN_ANOMALY></meanElements><tleParameters><EPHEMERIS_TYPE>0</EPHEMERIS_TYPE><CLASSIFICATION_TYPE>U</CLASSIFICATION_TYPE><NORAD_CAT_ID>33061</NORAD_CAT_ID><ELEMENT_SET_NO>999</ELEMENT_SET_NO><REV_AT_EPOCH>89186</REV_AT_EPOCH><BSTAR>.53414E-3</BSTAR><MEAN_MOTION_DOT>.3852E-4</MEAN_MOTION_DOT><MEAN_MOTION_DDOT>0</MEAN_MOTION_DDOT></tleParameters></data></segment></body></omm>
<omm id="CCSDS_OMM_VERS" version="2.0">
<header><CREATION_DATE/><ORIGINATOR/></header><body><segment><metadata><OBJECT_NAME>ORBCOMM FM29</OBJECT_NAME><OBJECT_ID>2008-031C</OBJECT_ID><CENTER_NAME>EARTH</CENTER_NAME><REF_FRAME>TEME</REF_FRAME><TIME_SYSTEM>UTC</TIME_SYSTEM><MEAN_ELEMENT_THEORY>SGP4</MEAN_ELEMENT_THEORY></metadata><data><meanElements><EPOCH>2025-01-17T14:15:51.592032</EPOCH><MEAN_MOTION>14.79814751</MEAN_MOTION><ECCENTRICITY>.0006293</ECCENTRICITY><INCLINATION>48.4400</INCLINATION><RA_OF_ASC_NODE>327.6033</RA_OF_ASC_NODE><ARG_OF_PERICENTER>92.0592</ARG_OF_PERICENTER><MEAN_ANOMALY>79.2354</MEAN_ANOMALY></meanElements><tleParameters><EPHEMERIS_TYPE>0</EPHEMERIS_TYPE><CLASSIFICATION_TYPE>U</CLASSIFICATION_TYPE><NORAD_CAT_ID>33062</NORAD_CAT_ID><ELEMENT_SET_NO>999</ELEMENT_SET_NO><REV_AT_EPOCH>89183</REV_AT_EPOCH><BSTAR>.57408E-3</BSTAR><MEAN_MOTION_DOT>.4161E-4</MEAN_MOTION_DOT><MEAN_MOTION_DDOT>0</MEAN_MOTION_DDOT></tleParameters></data></segment></body></omm>
<omm id="CCSDS_OMM_VERS" version="2.0">
<header><CREATION_DATE/><ORIGINATOR/></header><body><segment><metadata><OBJECT_NAME>ORBCOMM FM39</OBJECT_NAME><OBJECT_ID>2008-031D</OBJECT_ID><CENTER_NAME>EARTH</CENTER_NAME><REF_FRAME>TEME</REF_FRAME><TIME_SYSTEM>UTC</TIME_SYSTEM><MEAN_ELEMENT_THEORY>SGP4</MEAN_ELEMENT_THEORY></metadata><data><meanElements><EPOCH>2025-01-17T07:36:05.356224</EPOCH><MEAN_MOTION>14.78512820</MEAN_MOTION><ECCENTRICITY>.0007195</ECCENTRICITY><INCLINATION>48.4414</INCLINATION><RA_OF_ASC_NODE>351.6121</RA_OF_ASC_NODE><ARG_OF_PERICENTER>63.4422</ARG_OF_PERICENTER><MEAN_ANOMALY>296.7229</MEAN_ANOMALY></meanElements><tleParameters><EPHEMERIS_TYPE>0</EPHEMERIS_TYPE><CLASSIFICATION_TYPE>U</CLASSIFICATION_TYPE><NORAD_CAT_ID>33063</NORAD_CAT_ID><ELEMENT_SET_NO>999</ELEMENT_SET_NO><REV_AT_EPOCH>89146</REV_AT_EPOCH><BSTAR>.51226E-3</BSTAR><MEAN_MOTION_DOT>.3574E-4</MEAN_MOTION_DOT><MEAN_MOTION_DDOT>0</MEAN_MOTION_DDOT></tleParameters></data></segment></body></omm>

</ndm>
