ORBCOMM FM33            
1 25983U 99065D   25017.30619300  .00002627  00000+0  88378-3 0  9996
2 25983  45.0297 355.9640 0009250   9.9657 350.1374 14.39268710314327
ORBCOMM FM36            
1 25984U 99065E   25017.55846262  .00002505  00000+0  87755-3 0  9996
2 25984  45.0391  84.3730 0005574 260.5272  99.4946 14.37387571312746
ORBCOMM FM35            
1 25985U 99065F   25017.43491727  .00001610  00000+0  59164-3 0  9995
2 25985  45.0400  88.8491 0003395 324.3345  35.7276 14.36483171313102
ORBCOMM FM34            
1 25986U 99065G   25017.61361217  .00001757  00000+0  64045-3 0  9992
2 25986  45.0396  88.5246 0005235 287.6829  72.3448 14.36530657313240
ORBCOMM FM38            
1 33060U 08031A   25017.20220548  .00003752  00000+0  51644-3 0  9991
2 33060  48.4410 314.2233 0005381 107.1004 253.0501 14.80139462892376
ORBCOMM FM41            
1 33061U 08031B   25017.19082494  .00003852  00000+0  53414-3 0  9994
2 33061  48.4446 321.5602 0004577  91.1068  45.3868 14.79769401891866
ORBCOMM FM29            
1 33062U 08031C   25017.59434713  .00004161  00000+0  57408-3 0  9995
2 33062  48.4400 327.6033 0006293  92.0592  79.2354 14.79814751891833
ORBCOMM FM39            
1 33063U 08031D   25017.31672866  .00003574  00000+0  51226-3 0  9998
2 33063  48.4414 351.6121 0007195  63.4422 296.7229 14.78512820891467
